1 41478U 98067HY  16290.85461120  .00032516  00000-0  36663-3 0  9993
2 41478  51.6377 166.9250 0002577 188.6275 171.4675 15.62213067 23821
1 41478U 98067HY  16290.91857981  .00034224  00000-0  38540-3 0  9998
2 41478  51.6377 166.6022 0002581 189.0541 171.0407 15.62219234 23833
1 41478U 98067HY  16291.11048521  .00034034  00000-0  38310-3 0  9997
2 41478  51.6375 165.6336 0002570 190.0466 170.0477 15.62232841 23862
1 41478U 98067HY  16291.68619120  .00033074  00000-0  37193-3 0  9999
2 41478  51.6372 162.7283 0002578 192.5489 167.5441 15.62272812 23952
1 41478U 98067HY  16291.81412417  .00033696  00000-0  37867-3 0  9992
2 41478  51.6372 162.0826 0002555 193.1989 166.8939 15.62280936 23977
1 41478U 98067HY  16291.87809015  .00034539  00000-0  38788-3 0  9992
2 41478  51.6371 161.7598 0002551 193.4802 166.6125 15.62285988 23989
1 41478U 98067HY  16292.06998761  .00035838  00000-0  40197-3 0  9991
2 41478  51.6370 160.7914 0002548 194.5453 165.5468 15.62299614 24013
1 41478U 98067HY  16292.83756218  .00030404  00000-0  34154-3 0  9995
2 41478  51.6369 156.9175 0002530 198.6325 161.4577 15.62344545 24134
1 41478U 98067HY  16293.09341545  .00030306  00000-0  34026-3 0  9996
2 41478  51.6369 155.6262 0002526 199.8015 160.2882 15.62359944 24170
1 41478U 98067HY  16293.79700092  .00025295  00000-0  28478-3 0  9994
2 41478  51.6369 152.0755 0002499 202.9225 157.1658 15.62393731 24286
1 41478U 98067HY  16294.05284651  .00025868  00000-0  29094-3 0  9993
2 41478  51.6369 150.7843 0002468 204.8064 155.2811 15.62406340 24323
1 41478U 98067HY  16294.62849813  .00024177  00000-0  26635-3 0  9993
2 41478  51.6365 147.8793 0002578 208.5228 151.6145 15.62441324 24416
1 41478U 98067HY  16294.82037251  .00023188  00000-0  26118-3 0  9997
2 41478  51.6370 146.9101 0002475 208.2418 151.8442 15.62437421 24447
1 41478U 98067HY  16295.01225145  .00023859  00000-0  26845-3 0  9992
2 41478  51.6370 145.9416 0002466 209.5166 150.5690 15.62446345 24478
